OBJECT_NAME,OBJECT_ID,EPOCH,MEAN_MOTION,ECCENTRICITY,INCLINATION,RA_OF_ASC_NODE,ARG_OF_PERICENTER,MEAN_ANOMALY,EPHEMERIS_TYPE,CLASSIFICATION_TYPE,NORAD_CAT_ID,ELEMENT_SET_NO,REV_AT_EPOCH,BSTAR,MEAN_MOTION_DOT,MEAN_MOTION_DDOT
CUBEBUG-2 (LO-74),2013-066AA,2026-06-17T19:12:02.706048,14.93766530,.005835,97.8909,117.7807,27.1118,333.3127,0,U,39440,999,67708,.37357E-3,.4032E-4,0
FUNCUBE-1 (AO-73),2013-066AE,2026-06-17T10:54:09.970848,15.09493115,.00356534,97.8279,139.9057,199.8844,160.0997,0,U,39444,999,67970,.31860589E-3,.5112E-4,0
UWE-3,2013-066AG,2026-06-17T19:36:47.286144,14.97029101,.0047468,97.8697,124.8951,319.0483,40.7177,0,U,39446,999,67767,.31732E-3,.3675E-4,0
UNISAT-6,2014-033C,2026-06-17T09:39:12.738528,14.88246960,.00462463,97.7880,321.1100,68.6169,291.9973,0,U,40012,999,64619,.20611546E-3,.1884E-4,0
DUCHIFAT-1,2014-033M,2026-06-17T17:24:13.189824,15.64688216,.0002741,98.0453,227.9612,116.8844,243.2694,0,U,40021,999,65583,.92235E-3,.90047E-3,0
QB50P1,2014-033R,2026-06-17T13:05:32.140032,15.18264690,.0007823,98.0960,179.7168,213.7845,146.2890,0,U,40025,999,65308,.28772E-3,.5822E-4,0
LILACSAT-2,2015-049K,2026-06-17T20:27:56.987424,15.51463550,.0005534,97.4639,205.7197,241.6012,118.4682,0,U,40908,999,59585,.24503E-3,.14376E-3,0
FOX-1A (AO-85),2015-058D,2026-06-17T14:54:02.221056,14.90971345,.0130499,64.7761,277.6363,56.4134,304.9355,0,U,40967,999,11363,.17288E-3,.1835E-4,0
CAS-2T & KS-1Q,2016-066G,2026-06-17T19:04:23.019168,14.44696391,.0342813,98.3822,244.5241,127.6417,235.6409,0,U,41847,999,50488,.20773E-3,.1433E-4,0
RADFXSAT (FOX-1B),2017-073E,2026-06-17T14:31:00.659136,15.12722439,.0149538,97.4696,35.8108,327.7970,31.4193,0,U,43017,999,46545,.24962E-3,.5679E-4,0
DIWATA-2B,2018-084H,2026-06-17T20:04:55.446240,15.00455475,.0012506,98.1177,5.0732,167.9644,192.1880,0,U,43678,999,41631,.18304E-3,.2241E-4,0
ES'HAIL 2,2018-090A,2026-06-17T19:23:54.604032,1.00270986,.0001649,0.0175,15.7240,108.2888,98.7998,0,U,43700,999,2768,0,.139E-5,0
FOX-1CLIFF (AO-95),2018-099N,2026-06-17T09:43:46.294752,15.26715554,.00079519,97.4379,228.6506,357.1065,3.0126,0,U,43770,999,41325,.33623107E-3,.877E-4,0
ITASAT,2018-099AE,2026-06-17T14:44:54.793248,15.19062139,.0012039,97.4024,220.1177,358.8132,1.3072,0,U,43786,999,41297,.27237E-3,.5652E-4,0
JY1SAT (JO-97),2018-099AX,2026-06-17T03:51:50.109696,15.33652151,.00043325,97.4126,230.9950,262.3288,97.7462,0,U,43803,999,41362,.39004137E-3,.12621E-3,0
UWE-4,2018-111E,2026-06-17T19:08:32.335008,15.46158858,.0005426,97.5854,97.2166,339.8201,20.2832,0,U,43880,999,41087,.56593E-3,.27737E-3,0
TIANYAN 01,2019-093C,2026-06-17T20:27:36.254016,14.86520130,.0015116,97.7536,241.0683,84.7597,275.5344,0,U,44881,999,35151,.49559E-4,.386E-5,0
RS-44 & BREEZE-KM R/B,2019-096E,2026-06-17T13:15:32.880096,12.79748854,.0218184,82.5218,339.4621,143.3147,218.3119,0,U,44909,999,30239,.73756E-6,.13E-6,0
SALSAT,2020-068K,2026-06-17T12:54:41.050368,15.29803905,.000804,97.8847,171.6239,306.6544,53.3955,0,U,46495,999,31541,.21821E-3,.6219E-4,0
XW-3 (CAS-9),2021-131B,2026-06-17T21:18:12.246336,14.41357716,.0005391,98.4987,261.2735,95.1408,265.0396,0,U,50466,999,23521,.10879E-3,.308E-5,0
GREENCUBE (IO-117),2022-080E,2026-06-13T07:02:28.697280,6.42583230,.00089108,70.1444,299.5995,290.4576,69.5127,0,U,53109,999,9181,0,-.3E-7,0
UMKA 1 (RS40S),2023-091G,2026-06-17T19:37:27.099264,15.20824752,.0014251,97.5047,227.5124,115.6540,244.6169,0,U,57172,999,16410,.22142E-3,.4827E-4,0
CUBESX-HSE 3 (RS42S),2023-091N,2026-06-17T19:51:21.902112,15.31229214,.0012032,97.5089,234.4226,92.8902,267.3716,0,U,57178,999,16452,.35636E-3,.10697E-3,0
MONITOR-3 (RS58S),2023-091Q,2026-06-17T20:28:39.852192,15.27852989,.00131,97.5079,232.3041,98.7634,261.5090,0,U,57180,999,16439,.32742E-3,.8851E-4,0
MONITOR-4 (RS57S),2023-091S,2026-06-17T19:58:27.157728,15.27938570,.0013094,97.5073,232.2544,99.1521,261.1200,0,U,57182,999,16439,.31795E-3,.8616E-4,0
MONITOR-2 (RS39S),2023-091U,2026-06-17T20:09:11.795040,15.18915809,.001275,97.5070,227.1184,109.1111,251.1505,0,U,57184,999,16405,.20946E-3,.4312E-4,0
SVYATOBOR 1 (RS60S),2023-091X,2026-06-17T20:18:06.171264,15.26625268,.0010878,97.5086,232.6664,92.5278,267.7206,0,U,57187,999,16441,.29006E-3,.7538E-4,0
VIZARD-METEO (RS38S),2023-091Z,2026-06-17T19:10:39.296352,15.36043394,.000822,97.5090,238.2965,75.8337,284.3820,0,U,57189,999,16478,.40875E-3,.1429E-3,0
POLYTECH-UNIVERSE 3 (RS46S),2023-091AB,2026-06-17T19:13:23.350080,15.19117926,.0016893,97.5045,226.5844,124.7817,235.5010,0,U,57191,999,16404,.18883E-3,.3909E-4,0
UTMN 2 (RS27S),2023-091AP,2026-06-17T20:16:11.196192,15.32066245,.0009227,97.5084,236.0746,81.7253,278.5034,0,U,57203,999,16464,.34713E-3,.10684E-3,0
